[{"OBJECT_NAME":"GPS BIIF-7  (PRN 09)","OBJECT_ID":"2014-045A","EPOCH":"2026-04-27T04:43:05.179008","MEAN_MOTION":2.00555017,"ECCENTRICITY":0.0031683,"INCLINATION":55.3206,"RA_OF_ASC_NODE":90.4949,"ARG_OF_PERICENTER":119.1157,"MEAN_ANOMALY":241.1868,"EPHEMERIS_TYPE":0,"CLASSIFICATION_TYPE":"U","NORAD_CAT_ID":40105,"ELEMENT_SET_NO":999,"REV_AT_EPOCH":8505,"BSTAR":0,"MEAN_MOTION_DOT":2.4e-7,"MEAN_MOTION_DDOT":0},{"OBJECT_NAME":"GPS BIIF-8  (PRN 03)","OBJECT_ID":"2014-068A","EPOCH":"2026-04-27T01:41:33.804096","MEAN_MOTION":2.00573025,"ECCENTRICITY":0.00652938,"INCLINATION":56.9545,"RA_OF_ASC_NODE":32.9243,"ARG_OF_PERICENTER":68.8787,"MEAN_ANOMALY":291.8193,"EPHEMERIS_TYPE":0,"CLASSIFICATION_TYPE":"U","NORAD_CAT_ID":40294,"ELEMENT_SET_NO":999,"REV_AT_EPOCH":8418,"BSTAR":0,"MEAN_MOTION_DOT":-1.03e-6,"MEAN_MOTION_DDOT":0},{"OBJECT_NAME":"GPS BIIF-9  (PRN 26)","OBJECT_ID":"2015-013A","EPOCH":"2026-04-26T16:57:16.988832","MEAN_MOTION":2.00554396,"ECCENTRICITY":0.01088827,"INCLINATION":53.1742,"RA_OF_ASC_NODE":206.3067,"ARG_OF_PERICENTER":39.9769,"MEAN_ANOMALY":320.8462,"EPHEMERIS_TYPE":0,"CLASSIFICATION_TYPE":"U","NORAD_CAT_ID":40534,"ELEMENT_SET_NO":999,"REV_AT_EPOCH":8079,"BSTAR":0,"MEAN_MOTION_DOT":-3.6e-7,"MEAN_MOTION_DDOT":0},{"OBJECT_NAME":"GPS BIIF-10 (PRN 08)","OBJECT_ID":"2015-033A","EPOCH":"2026-04-27T08:44:55.548384","MEAN_MOTION":2.00558877,"ECCENTRICITY":0.0115011,"INCLINATION":54.0239,"RA_OF_ASC_NODE":269.1804,"ARG_OF_PERICENTER":29.9015,"MEAN_ANOMALY":330.7125,"EPHEMERIS_TYPE":0,"CLASSIFICATION_TYPE":"U","NORAD_CAT_ID":40730,"ELEMENT_SET_NO":999,"REV_AT_EPOCH":7897,"BSTAR":0,"MEAN_MOTION_DOT":-6.0e-7,"MEAN_MOTION_DDOT":0},{"OBJECT_NAME":"GPS BIIF-11 (PRN 10)","OBJECT_ID":"2015-062A","EPOCH":"2026-04-26T22:10:14.185056","MEAN_MOTION":2.00567014,"ECCENTRICITY":0.01112557,"INCLINATION":56.9271,"RA_OF_ASC_NODE":32.7864,"ARG_OF_PERICENTER":231.5148,"MEAN_ANOMALY":127.4874,"EPHEMERIS_TYPE":0,"CLASSIFICATION_TYPE":"U","NORAD_CAT_ID":41019,"ELEMENT_SET_NO":999,"REV_AT_EPOCH":7680,"BSTAR":0,"MEAN_MOTION_DOT":-1.03e-6,"MEAN_MOTION_DDOT":0},{"OBJECT_NAME":"GPS BIIF-12 (PRN 32)","OBJECT_ID":"2016-007A","EPOCH":"2026-04-27T00:16:43.583520","MEAN_MOTION":2.00554124,"ECCENTRICITY":0.00961218,"INCLINATION":55.493,"RA_OF_ASC_NODE":91.487,"ARG_OF_PERICENTER":247.0983,"MEAN_ANOMALY":111.8712,"EPHEMERIS_TYPE":0,"CLASSIFICATION_TYPE":"U","NORAD_CAT_ID":41328,"ELEMENT_SET_NO":999,"REV_AT_EPOCH":7481,"BSTAR":0,"MEAN_MOTION_DOT":2.8e-7,"MEAN_MOTION_DDOT":0},{"OBJECT_NAME":"GPS BIII-1  (PRN 04)","OBJECT_ID":"2018-109A","EPOCH":"2026-04-26T09:38:00.627360","MEAN_MOTION":2.00559161,"ECCENTRICITY":0.00378986,"INCLINATION":55.6514,"RA_OF_ASC_NODE":94.2279,"ARG_OF_PERICENTER":198.8751,"MEAN_ANOMALY":333.4999,"EPHEMERIS_TYPE":0,"CLASSIFICATION_TYPE":"U","NORAD_CAT_ID":43873,"ELEMENT_SET_NO":999,"REV_AT_EPOCH":5403,"BSTAR":0,"MEAN_MOTION_DOT":3.9e-7,"MEAN_MOTION_DDOT":0},{"OBJECT_NAME":"GPS BIII-2  (PRN 18)","OBJECT_ID":"2019-056A","EPOCH":"2026-04-27T00:49:28.773984","MEAN_MOTION":2.00569164,"ECCENTRICITY":0.00595783,"INCLINATION":55.6599,"RA_OF_ASC_NODE":333.1752,"ARG_OF_PERICENTER":197.4088,"MEAN_ANOMALY":334.1665,"EPHEMERIS_TYPE":0,"CLASSIFICATION_TYPE":"U","NORAD_CAT_ID":44506,"ELEMENT_SET_NO":999,"REV_AT_EPOCH":4904,"BSTAR":0,"MEAN_MOTION_DOT":-8.1e-7,"MEAN_MOTION_DDOT":0},{"OBJECT_NAME":"GPS BIII-3  (PRN 23)","OBJECT_ID":"2020-041A","EPOCH":"2026-04-27T02:21:53.578656","MEAN_MOTION":2.00559759,"ECCENTRICITY":0.00622184,"INCLINATION":56.6387,"RA_OF_ASC_NODE":30.9255,"ARG_OF_PERICENTER":205.0319,"MEAN_ANOMALY":313.2798,"EPHEMERIS_TYPE":0,"CLASSIFICATION_TYPE":"U","NORAD_CAT_ID":45854,"ELEMENT_SET_NO":999,"REV_AT_EPOCH":4301,"BSTAR":0,"MEAN_MOTION_DOT":-1.06e-6,"MEAN_MOTION_DDOT":0},{"OBJECT_NAME":"GPS BIII-4  (PRN 14)","OBJECT_ID":"2020-078A","EPOCH":"2026-04-22T22:15:39.157056","MEAN_MOTION":2.00564823,"ECCENTRICITY":0.0070939,"INCLINATION":53.9891,"RA_OF_ASC_NODE":213.0193,"ARG_OF_PERICENTER":205.6597,"MEAN_ANOMALY":155.6852,"EPHEMERIS_TYPE":0,"CLASSIFICATION_TYPE":"U","NORAD_CAT_ID":46826,"ELEMENT_SET_NO":999,"REV_AT_EPOCH":4040,"BSTAR":0,"MEAN_MOTION_DOT":-1.7e-7,"MEAN_MOTION_DDOT":0},{"OBJECT_NAME":"GPS BIII-5  (PRN 11)","OBJECT_ID":"2021-054A","EPOCH":"2026-04-27T09:58:18.990912","MEAN_MOTION":2.00572318,"ECCENTRICITY":0.0024041,"INCLINATION":55.1967,"RA_OF_ASC_NODE":334.5003,"ARG_OF_PERICENTER":229.8581,"MEAN_ANOMALY":317.6354,"EPHEMERIS_TYPE":0,"CLASSIFICATION_TYPE":"U","NORAD_CAT_ID":48859,"ELEMENT_SET_NO":999,"REV_AT_EPOCH":3573,"BSTAR":0,"MEAN_MOTION_DOT":-8.4e-7,"MEAN_MOTION_DDOT":0},{"OBJECT_NAME":"GPS BIII-6  (PRN 28)","OBJECT_ID":"2023-009A","EPOCH":"2026-04-26T03:49:32.691360","MEAN_MOTION":2.00574943,"ECCENTRICITY":0.00056152,"INCLINATION":55.1147,"RA_OF_ASC_NODE":150.5635,"ARG_OF_PERICENTER":315.2799,"MEAN_ANOMALY":82.808,"EPHEMERIS_TYPE":0,"CLASSIFICATION_TYPE":"U","NORAD_CAT_ID":55268,"ELEMENT_SET_NO":999,"REV_AT_EPOCH":2420,"BSTAR":0,"MEAN_MOTION_DOT":6.0e-7,"MEAN_MOTION_DDOT":0},{"OBJECT_NAME":"GPS BIII-7  (PRN 01)","OBJECT_ID":"2024-242A","EPOCH":"2026-04-26T05:41:38.583168","MEAN_MOTION":2.00570556,"ECCENTRICITY":0.00168326,"INCLINATION":54.8705,"RA_OF_ASC_NODE":336.2872,"ARG_OF_PERICENTER":0.5482,"MEAN_ANOMALY":176.6523,"EPHEMERIS_TYPE":0,"CLASSIFICATION_TYPE":"U","NORAD_CAT_ID":62339,"ELEMENT_SET_NO":999,"REV_AT_EPOCH":1021,"BSTAR":0,"MEAN_MOTION_DOT":-8.5e-7,"MEAN_MOTION_DDOT":0},{"OBJECT_NAME":"GPS BIII-8  (PRN 21)","OBJECT_ID":"2025-116A","EPOCH":"2026-04-23T05:49:38.568864","MEAN_MOTION":2.00549673,"ECCENTRICITY":0.00091244,"INCLINATION":55.1985,"RA_OF_ASC_NODE":33.3417,"ARG_OF_PERICENTER":335.2523,"MEAN_ANOMALY":22.0569,"EPHEMERIS_TYPE":0,"CLASSIFICATION_TYPE":"U","NORAD_CAT_ID":64202,"ELEMENT_SET_NO":999,"REV_AT_EPOCH":676,"BSTAR":0,"MEAN_MOTION_DOT":-8.1e-7,"MEAN_MOTION_DDOT":0},{"OBJECT_NAME":"GPS BIII-9  (PRN 20)","OBJECT_ID":"2026-017A","EPOCH":"2026-04-20T08:44:44.906496","MEAN_MOTION":2.00572232,"ECCENTRICITY":0.00246117,"INCLINATION":55.0497,"RA_OF_ASC_NODE":91.0746,"ARG_OF_PERICENTER":254.1378,"MEAN_ANOMALY":105.5744,"EPHEMERIS_TYPE":0,"CLASSIFICATION_TYPE":"U","NORAD_CAT_ID":67588,"ELEMENT_SET_NO":999,"REV_AT_EPOCH":43045,"BSTAR":0,"MEAN_MOTION_DOT":2.3e-7,"MEAN_MOTION_DDOT":0},{"OBJECT_NAME":"GPS BIII-10","OBJECT_ID":"2026-087A","EPOCH":"2026-04-22T08:11:45.645792","MEAN_MOTION":4.03281331,"ECCENTRICITY":0.59420752,"INCLINATION":54.9968,"RA_OF_ASC_NODE":210.8716,"ARG_OF_PERICENTER":270.2176,"MEAN_ANOMALY":26.1146,"EPHEMERIS_TYPE":0,"CLASSIFICATION_TYPE":"U","NORAD_CAT_ID":68791,"ELEMENT_SET_NO":999,"REV_AT_EPOCH":5,"BSTAR":0.0019778413,"MEAN_MOTION_DOT":2.417e-5,"MEAN_MOTION_DDOT":0}]
